1 57942U 23148H   25312.04710878  .00001318  00000+0  56636-4 0  9995
2 57942  53.1596 229.5065 0001223  85.7181 274.3960 15.30194680119790